STARLINK-1007           
1 44713U 19074A   23322.51848587  .00002653  00000+0  19690-3 0  9991
2 44713  53.0561   7.2723 0001497  92.4542 267.6619 15.06403020221811
STARLINK-1008           
1 44714U 19074B   23322.56366475  .00002409  00000+0  18060-3 0  9997
2 44714  53.0560   7.0713 0001541 102.3757 257.7405 15.06397859221823
STARLINK-1009           
1 44715U 19074C   23322.41991227  .00000434  00000+0  48009-4 0  9994
2 44715  53.0567   7.7209 0001446  88.0334 272.0820 15.06403004221969
STARLINK-1010           
1 44716U 19074D   23322.50468203  .00000198  00000+0  32202-4 0  9993
2 44716  53.0562   7.3359 0001391  95.0304 265.0843 15.06406512221796
STARLINK-1011           
1 44717U 19074E   23322.50284812  .00008705  00000+0  60245-3 0  9995
2 44717  53.0555  27.3430 0001235  95.6288 264.4842 15.06407382221535
STARLINK-1012           
1 44718U 19074F   23322.40885378  .00000059  00000+0  22860-4 0  9995
2 44718  53.0562   7.7677 0001465 100.4121 259.7033 15.06403822221797
STARLINK-1013           
1 44719U 19074G   23322.41622032 -.00000118  00000+0  10964-4 0  9992
2 44719  53.0560   7.7369 0001507  90.9468 269.1693 15.06407320222928
STARLINK-1014           
1 44720U 19074H   23322.56639402 -.00002640  00000+0 -15832-3 0  9990
2 44720  53.0558   7.0506 0001411  86.0224 274.0926 15.06419737221820
STARLINK-1015           
1 44721U 19074J   23322.42359084 -.00000484  00000+0 -13571-4 0  9994
2 44721  53.0571   7.7011 0001521 100.1088 260.0073 15.06405973221793
STARLINK-1017           
1 44723U 19074L   23322.50837004  .00002340  00000+0  17597-3 0  9990
2 44723  53.0579   7.3235 0001787 111.9428 248.1751 15.06386648221819
STARLINK-1019           
1 44724U 19074M   23322.40516847 -.00000028  00000+0  17048-4 0  9993
2 44724  53.0559   7.7842 0001502  89.4976 270.6185 15.06402140221792
STARLINK-1020           
1 44725U 19074N   23322.47704148  .00002606  00000+0  19379-3 0  9995
2 44725  53.0557  27.4620 0001129  91.0156 269.0962 15.06400425221528
STARLINK-1021           
1 44726U 19074P   23322.40148488  .00001979  00000+0  15169-3 0  9993
2 44726  53.0555   7.7994 0001433  88.8363 271.2790 15.06400635221790
STARLINK-1024           
1 44729U 19074S   23322.29515711  .00038594  00000+0  47924-3 0  9997
2 44729  53.0155 275.8934 0003634 358.5821   1.5180 15.59640190223027
STARLINK-1027           
1 44732U 19074V   23322.46599824  .00015112  00000+0  10315-2 0  9991
2 44732  53.0561  27.5133 0001982  91.0911 269.0305 15.06389303221529
STARLINK-1028           
1 44733U 19074W   23322.39779252  .00001140  00000+0  95384-4 0  9996
2 44733  53.0556   7.8121 0001268  88.3470 271.7664 15.06405121221792
STARLINK-1029           
1 44734U 19074X   23322.21350041  .00001122  00000+0  94204-4 0  9999
2 44734  53.0548 288.6418 0001675  93.3495 266.7685 15.06402503222864
STARLINK-1030           
1 44735U 19074Y   23322.47338611  .00032185  00000+0  21721-2 0  9992
2 44735  53.0551  27.4776 0001945  81.0258 279.0951 15.06359442221524
STARLINK-1031           
1 44736U 19074Z   23322.48809495  .00004676  00000+0  33258-3 0  9990
2 44736  53.0550  27.4134 0001337 101.7137 258.4002 15.06405342221533
STARLINK-1032           
1 44737U 19074AA  23322.56551637  .00008613  00000+0  59615-3 0  9992
2 44737  53.0545  27.0625 0001247  98.6227 261.4903 15.06415700221547
STARLINK-1035           
1 44740U 19074AD  23322.56181592 -.00002420  00000+0 -14360-3 0  9995
2 44740  53.0562  27.0852 0002384 111.5887 248.5356 15.06403758221540
STARLINK-1036           
1 44741U 19074AE  23322.50652794 -.00001880  00000+0 -10727-3 0  9999
2 44741  53.0560  27.3284 0002593 109.3055 250.8215 15.06405200221538
STARLINK-1038           
1 44743U 19074AG  23322.48994534  .00002562  00000+0  19078-3 0  9993
2 44743  53.0561  47.4015 0001274  93.5485 266.5649 15.06406246221347
STARLINK-1039           
1 44744U 19074AH  23322.50099783  .00000786  00000+0  71635-4 0  9993
2 44744  53.0551  47.3511 0001037  82.8926 277.2181 15.06400370221257
STARLINK-1041           
1 44746U 19074AK  23322.48625598  .00001553  00000+0  12319-3 0  9997
2 44746  53.0577  47.4183 0001492  87.2344 272.8816 15.06388169221258
STARLINK-1042           
1 44747U 19074AL  23322.51574079  .00002207  00000+0  16703-3 0  9997
2 44747  53.0561  47.2829 0001270  93.6334 266.4801 15.06395247221260
STARLINK-1043           
1 44748U 19074AM  23322.54520890 -.00012455  00000+0 -81771-3 0  9998
2 44748  53.0554  47.1546 0001044  63.6412 296.4684 15.06447083221269
STARLINK-1046           
1 44751U 19074AQ  23322.49362045 -.00003814  00000+0 -23720-3 0  9991
2 44751  53.0567  47.3868 0001591  97.4584 262.6586 15.06410731221253
STARLINK-1047           
1 44752U 19074AR  23322.44755277  .00003106  00000+0  22731-3 0  9993
2 44752  53.0556  27.5933 0001428  78.1779 281.9370 15.06400169221525
STARLINK-1048           
1 44753U 19074AS  23322.45309133  .00005601  00000+0  39470-3 0  9991
2 44753  53.0561   7.5678 0001515  87.1366 272.9796 15.06393883221802
STARLINK-1052           
1 44757U 19074AW  23322.46622472  .00012790  00000+0  77939-3 0  9999
2 44757  53.0564  26.2034 0001341 324.6529  35.4372 15.10709925221546
STARLINK-1053           
1 44758U 19074AX  23322.54155523  .00002789  00000+0  20601-3 0  9998
2 44758  53.0559  47.2564 0001284  71.7391 288.3737 15.06401415221266
STARLINK-1054           
1 44759U 19074AY  23322.52311673  .00003621  00000+0  26187-3 0  9998
2 44759  53.0555  47.2496 0001388  92.8378 267.2770 15.06400694218909
STARLINK-1055           
1 44760U 19074AZ  23322.56687974  .00005050  00000+0  23219-3 0  9995
2 44760  53.0415  26.0196 0000843 335.8694  24.2262 15.22038706221577
STARLINK-1056           
1 44761U 19074BA  23322.51942812  .00001828  00000+0  14155-3 0  9994
2 44761  53.0564  47.2688 0001207  88.2744 271.8383 15.06399829221262
STARLINK-1057           
1 44762U 19074BB  23322.45491714 -.00007694  00000+0 -49774-3 0  9992
2 44762  53.0564  27.5572 0001125  82.9765 277.1352 15.06434064221524
STARLINK-1058           
1 44763U 19074BC  23322.50842759  .00003053  00000+0  22379-3 0  9993
2 44763  53.0547  47.6651 0001303  88.7989 271.3149 15.06390258221253
STARLINK-1059           
1 44764U 19074BD  23322.49894250  .00015217  00000+0  59425-3 0  9992
2 44764  53.0813 351.3700 0003831 247.9224 112.1367 15.26097741222055
STARLINK-1060           
1 44765U 19074BE  23322.60233534 -.00013295  00000+0 -87367-3 0  9990
2 44765  53.0559  26.8977 0001664 111.1109 249.0058 15.06467559221545
STARLINK-1061           
1 44766U 19074BF  23322.53414698 -.00014887  00000+0 -98082-3 0  9999
2 44766  53.0558  47.2034 0001083  84.5615 275.5497 15.06466283221269
STARLINK-1062           
1 44767U 19074BG  23322.52585179 -.00000101  00000+0  12117-4 0  9991
2 44767  53.0555  47.2285 0001384  84.7039 275.4108 15.06403529221263
STARLINK-1063           
1 44768U 19074BH  23322.54891158  .00003779  00000+0  27252-3 0  9999
2 44768  53.0569  47.1372 0001024 107.4245 252.6856 15.06390318221277
STARLINK-1067           
1 44771U 19074BL  23322.53785449  .00000381  00000+0  44471-4 0  9996
2 44771  53.0556  47.1894 0001332 101.9114 258.2024 15.06401945221269
STARLINK-1068           
1 44772U 19074BM  23322.59501417  .00016505  00000+0  11263-2 0  9990
2 44772  53.0558  26.9305 0002261 108.8326 251.2908 15.06335565221546
STARLINK-1073           
1 44914U 20001A   23322.61158082  .00000859  00000+0  76533-4 0  9997
2 44914  53.0527 166.8552 0001555  89.5393 270.5774 15.06399404212921
STARLINK-1084           
1 44915U 20001B   23322.57472697  .00001371  00000+0  11093-3 0  9993
2 44915  53.0538 167.0204 0001507  92.7725 267.3436 15.06404800212929
STARLINK-1098           
1 44917U 20001D   23322.31302346  .00000387  00000+0  44873-4 0  9999
2 44917  53.0555 168.1951 0001232  87.8701 272.2429 15.06400593212882
STARLINK-1099           
1 44918U 20001E   23322.29637421  .00014562  00000+0  32289-3 0  9999
2 44918  53.0561 164.4639 0000424 347.6828  12.4167 15.44007657213678
STARLINK-1102           
1 44920U 20001G   23322.22518414  .00017980  00000+0  72044-3 0  9995
2 44920  53.0539 140.8882 0003439  74.6176 285.5201 15.25111110213262
STARLINK-1103           
1 44921U 20001H   23322.29009911  .00000272  00000+0  36899-4 0  9995
2 44921  53.0572 168.2553 0001440  93.8219 266.2935 15.06722576212857
STARLINK-1104           
1 44922U 20001J   23321.99602909 -.00000592  00000+0 -20846-4 0  9990
2 44922  53.0558 169.6193 0001354  89.7199 270.3945 15.06402879212838
STARLINK-1106           
1 44923U 20001K   23322.54571302  .00005375  00000+0  25220-3 0  9997
2 44923  53.0591 148.9693 0000913 120.2637 239.8449 15.21205844213176
STARLINK-1111           
1 44924U 20001L   23322.60790000 -.00001065  00000+0 -52611-4 0  9992
2 44924  53.0530 166.8933 0001247  88.8627 271.2505 15.06407417212923
STARLINK-1112           
1 44925U 20001M   23322.29090943  .00000404  00000+0  46013-4 0  9990
2 44925  53.0564 168.2974 0001514  95.2518 264.8643 15.06393327212879
STARLINK-1113           
1 44926U 20001N   23322.55262109  .00000581  00000+0  57943-4 0  9995
2 44926  53.0530 167.2074 0001545  92.1453 267.9713 15.06393243213602
STARLINK-1114           
1 44927U 20001P   23322.56736821  .00002717  00000+0  20125-3 0  9998
2 44927  53.0549 167.0558 0001155 106.8594 253.2522 15.06392808212920
STARLINK-1119           
1 44928U 20001Q   23322.54419419  .00000136  00000+0  16088-4 0  9995
2 44928  53.0531 162.7404 0001363  93.7468 266.3687 15.31878682212989
STARLINK-1121           
1 44929U 20001R   23322.58334491  .00099030  00000+0  60294-3 0  9994
2 44929  53.0492 159.9519 0000545 104.0293  49.9589 15.76691827  5804
STARLINK-1123           
1 44930U 20001S   23322.31670434  .00001396  00000+0  11262-3 0  9996
2 44930  53.0547 168.1796 0001441  91.0078 269.1076 15.06401347212882
